{
  "type": "FeatureCollection",
  "features": [
    {
      "type": "Feature",
      "properties": {
        "norad_id": 41890,
        "name": "CYGFM07",
        "group": "weather",
        "lat": 34.90533845715666,
        "lon": 173.31043714139312,
        "alt_km": 407.28583998782597,
        "timestamp": "2025-12-03T15:48:02.748369+00:00",
        "meta_object_name": "CYGFM07",
        "meta_object_id": "2016-078G",
        "meta_epoch": "2025-12-03T07:40:28.276608",
        "meta_mean_motion": 15.49406844,
        "meta_eccentricity": 0.00089722,
        "meta_inclination": 34.947,
        "meta_ra_of_asc_node": 83.1879,
        "meta_arg_of_pericenter": 128.6712,
        "meta_mean_anomaly": 231.4814,
        "meta_ephemeris_type": 0,
        "meta_classification_type": "U",
        "meta_norad_cat_id": 41890,
        "meta_element_set_no": 999,
        "meta_rev_at_epoch": 49849,
        "meta_bstar": 0.00049421872,
        "meta_mean_motion_dot": 0.00028072,
        "meta_mean_motion_ddot": 0,
        "tle_line1": "1 41890U 16078G   25337.31977172  .00028072  00000+0  49422-3 0  9993",
        "tle_line2": "2 41890  34.9470  83.1879 0008972 128.6712 231.4814 15.49406844498492"
      },
      "geometry": {
        "type": "Point",
        "coordinates": [
          173.31043714139312,
          34.90533845715666
        ]
      }
    },
    {
      "type": "Feature",
      "properties": {
        "norad_id": 41891,
        "name": "CYGFM03",
        "group": "weather",
        "lat": -32.566739196252115,
        "lon": 16.7075374947319,
        "alt_km": 426.23405471020214,
        "timestamp": "2025-12-03T15:48:02.748378+00:00",
        "meta_object_name": "CYGFM03",
        "meta_object_id": "2016-078H",
        "meta_epoch": "2025-12-03T08:22:12.875232",
        "meta_mean_motion": 15.49312546,
        "meta_eccentricity": 0.00083129,
        "meta_inclination": 34.9424,
        "meta_ra_of_asc_node": 84.9098,
        "meta_arg_of_pericenter": 115.9482,
        "meta_mean_anomaly": 244.2097,
        "meta_ephemeris_type": 0,
        "meta_classification_type": "U",
        "meta_norad_cat_id": 41891,
        "meta_element_set_no": 999,
        "meta_rev_at_epoch": 49847,
        "meta_bstar": 0.0005016209,
        "meta_mean_motion_dot": 0.00028393,
        "meta_mean_motion_ddot": 0,
        "tle_line1": "1 41891U 16078H   25337.34876013  .00028393  00000+0  50162-3 0  9998",
        "tle_line2": "2 41891  34.9424  84.9098 0008312 115.9482 244.2097 15.49312546498473"
      },
      "geometry": {
        "type": "Point",
        "coordinates": [
          16.7075374947319,
          -32.566739196252115
        ]
      }
    },
    {
      "type": "Feature",
      "properties": {
        "norad_id": 43010,
        "name": "FENGYUN 3D",
        "group": "weather",
        "lat": 58.67124188150544,
        "lon": -71.2378251153257,
        "alt_km": 821.1301713283929,
        "timestamp": "2025-12-03T15:48:02.748396+00:00",
        "meta_object_name": "FENGYUN 3D",
        "meta_object_id": "2017-072A",
        "meta_epoch": "2025-12-03T08:45:14.012928",
        "meta_mean_motion": 14.19679331,
        "meta_eccentricity": 5.96e-05,
        "meta_inclination": 98.988,
        "meta_ra_of_asc_node": 303.5352,
        "meta_arg_of_pericenter": 221.3514,
        "meta_mean_anomaly": 138.7617,
        "meta_ephemeris_type": 0,
        "meta_classification_type": "U",
        "meta_norad_cat_id": 43010,
        "meta_element_set_no": 999,
        "meta_rev_at_epoch": 41720,
        "meta_bstar": 9.9937712e-05,
        "meta_mean_motion_dot": 1.65e-06,
        "meta_mean_motion_ddot": 0,
        "tle_line1": "1 43010U 17072A   25337.36474552  .00000165  00000+0  99938-4 0  9994",
        "tle_line2": "2 43010  98.9880 303.5352 0000596 221.3514 138.7617 14.19679331417202"
      },
      "geometry": {
        "type": "Point",
        "coordinates": [
          -71.2378251153257,
          58.67124188150544
        ]
      }
    },
    {
      "type": "Feature",
      "properties": {
        "norad_id": 43013,
        "name": "NOAA 20 (JPSS-1)",
        "group": "weather",
        "lat": -37.2009157836165,
        "lon": 87.33474126148978,
        "alt_km": 833.9893193159724,
        "timestamp": "2025-12-03T15:48:02.748406+00:00",
        "meta_object_name": "NOAA 20 (JPSS-1)",
        "meta_object_id": "2017-073A",
        "meta_epoch": "2025-12-03T08:00:44.205408",
        "meta_mean_motion": 14.19521658,
        "meta_eccentricity": 0.00020706,
        "meta_inclination": 98.7585,
        "meta_ra_of_asc_node": 273.7341,
        "meta_arg_of_pericenter": 100.6703,
        "meta_mean_anomaly": 259.4707,
        "meta_ephemeris_type": 0,
        "meta_classification_type": "U",
        "meta_norad_cat_id": 43013,
        "meta_element_set_no": 999,
        "meta_rev_at_epoch": 41668,
        "meta_bstar": 8.8000204e-05,
        "meta_mean_motion_dot": 1.41e-06,
        "meta_mean_motion_ddot": 0,
        "tle_line1": "1 43013U 17073A   25337.33384497  .00000141  00000+0  88000-4 0  9995",
        "tle_line2": "2 43013  98.7585 273.7341 0002070 100.6703 259.4707 14.19521658416689"
      },
      "geometry": {
        "type": "Point",
        "coordinates": [
          87.33474126148978,
          -37.2009157836165
        ]
      }
    },
    {
      "type": "Feature",
      "properties": {
        "norad_id": 43226,
        "name": "GOES 17",
        "group": "weather",
        "lat": 0.3014696493537851,
        "lon": -139.79736073377984,
        "alt_km": 35776.9219147735,
        "timestamp": "2025-12-03T15:48:02.748416+00:00",
        "meta_object_name": "GOES 17",
        "meta_object_id": "2018-022A",
        "meta_epoch": "2025-12-03T06:40:38.582976",
        "meta_mean_motion": 1.00271383,
        "meta_eccentricity": 0.0003416,
        "meta_inclination": 0.4333,
        "meta_ra_of_asc_node": 89.3344,
        "meta_arg_of_pericenter": 181.2643,
        "meta_mean_anomaly": 172.4325,
        "meta_ephemeris_type": 0,
        "meta_classification_type": "U",
        "meta_norad_cat_id": 43226,
        "meta_element_set_no": 999,
        "meta_rev_at_epoch": 2845,
        "meta_bstar": 0,
        "meta_mean_motion_dot": -1.64e-06,
        "meta_mean_motion_ddot": 0,
        "tle_line1": "1 43226U 18022A   25337.27822434 -.00000164  00000+0  00000+0 0  9992",
        "tle_line2": "2 43226   0.4333  89.3344 0003416 181.2643 172.4325  1.00271383 28450"
      },
      "geometry": {
        "type": "Point",
        "coordinates": [
          -139.79736073377984,
          0.3014696493537851
        ]
      }
    },
    {
      "type": "Feature",
      "properties": {
        "norad_id": 43491,
        "name": "FENGYUN 2H",
        "group": "weather",
        "lat": -1.9740996667907162,
        "lon": 29.13930838530438,
        "alt_km": 35796.52525643686,
        "timestamp": "2025-12-03T15:48:02.748427+00:00",
        "meta_object_name": "FENGYUN 2H",
        "meta_object_id": "2018-050A",
        "meta_epoch": "2025-12-03T02:08:49.697376",
        "meta_mean_motion": 1.00271438,
        "meta_eccentricity": 0.00028871,
        "meta_inclination": 2.5239,
        "meta_ra_of_asc_node": 81.4356,
        "meta_arg_of_pericenter": 162.214,
        "meta_mean_anomaly": 300.1007,
        "meta_ephemeris_type": 0,
        "meta_classification_type": "U",
        "meta_norad_cat_id": 43491,
        "meta_element_set_no": 999,
        "meta_rev_at_epoch": 2747,
        "meta_bstar": 0,
        "meta_mean_motion_dot": -1.11e-06,
        "meta_mean_motion_ddot": 0,
        "tle_line1": "1 43491U 18050A   25337.08946409 -.00000111  00000+0  00000+0 0  9997",
        "tle_line2": "2 43491   2.5239  81.4356 0002887 162.2140 300.1007  1.00271438 27479"
      },
      "geometry": {
        "type": "Point",
        "coordinates": [
          29.13930838530438,
          -1.9740996667907162
        ]
      }
    },
    {
      "type": "Feature",
      "properties": {
        "norad_id": 43689,
        "name": "METOP-C",
        "group": "weather",
        "lat": -64.57936072643673,
        "lon": 54.34769045602782,
        "alt_km": 828.1122686377221,
        "timestamp": "2025-12-03T15:48:02.748438+00:00",
        "meta_object_name": "METOP-C",
        "meta_object_id": "2018-087A",
        "meta_epoch": "2025-12-03T07:39:51.681024",
        "meta_mean_motion": 14.21506069,
        "meta_eccentricity": 0.00017071,
        "meta_inclination": 98.6943,
        "meta_ra_of_asc_node": 35.2327,
        "meta_arg_of_pericenter": 57.6983,
        "meta_mean_anomaly": 302.436,
        "meta_ephemeris_type": 0,
        "meta_classification_type": "U",
        "meta_norad_cat_id": 43689,
        "meta_element_set_no": 999,
        "meta_rev_at_epoch": 36700,
        "meta_bstar": 0.0001240808,
        "meta_mean_motion_dot": 2.28e-06,
        "meta_mean_motion_ddot": 0,
        "tle_line1": "1 43689U 18087A   25337.31934816  .00000228  00000+0  12408-3 0  9998",
        "tle_line2": "2 43689  98.6943  35.2327 0001707  57.6983 302.4360 14.21506069367004"
      },
      "geometry": {
        "type": "Point",
        "coordinates": [
          54.34769045602782,
          -64.57936072643673
        ]
      }
    }
  ]
}